{
  "norad_id": 47802,
  "name": "STARLINK-2383",
  "history": [
    {
      "epoch": "2026-03-28T12:07:08.835168Z",
      "apogee_km": 478.71426845279984,
      "perigee_km": 476.8192966473025,
      "latitude_deg": 5.006772820789461e-05,
      "longitude_deg": 160.1330737241968,
      "height_km": 478.54411677598654,
      "semi_major_axis_km": 6855.903782550051,
      "eccentricity": 0.0001382,
      "inclination_deg": 53.1579,
      "raan_deg": 167.8443,
      "arg_perigee_deg": 82.7216,
      "mean_anomaly_deg": 277.3942,
      "mean_motion_rev_day": 15.29345787
    }
  ]
}